CCSDS_OMM_VERS,COMMENT,CREATION_DATE,ORIGINATOR,OBJECT_NAME,OBJECT_ID,CENTER_NAME,REF_FRAME,TIME_SYSTEM,MEAN_ELEMENT_THEORY,EPOCH,MEAN_MOTION,ECCENTRICITY,INCLINATION,RA_OF_ASC_NODE,ARG_OF_PERICENTER,MEAN_ANOMALY,EPHEMERIS_TYPE,CLASSIFICATION_TYPE,NORAD_CAT_ID,ELEMENT_SET_NO,REV_AT_EPOCH,BSTAR,MEAN_MOTION_DOT,MEAN_MOTION_DDOT,SEMIMAJOR_AXIS,PERIOD,APOAPSIS,PERIAPSIS,OBJECT_TYPE,RCS_SIZE,COUNTRY_CODE,LAUNCH_DATE,SITE,DECAY_DATE,FILE,GP_ID,TLE_LINE0,TLE_LINE1,TLE_LINE2
2,GENERATED VIA SPACE-TRACK.ORG API,2021-03-01T03:37:00,18 SPCS,STARLINK-1098,2020-001D,EARTH,TEME,UTC,SGP4,2021-02-28T16:43:35.958144,15.06389016,0.0002223,53.0559,304.1892,80.9644,279.1597,0,U,44917,999,6327,-2.3078e-05,-6.25e-06,0,6925.382,95.593,548.787,545.708,PAYLOAD,LARGE,US,2020-01-07,AFETR,,2973176,172617819,0 STARLINK-1098,1 44917U 20001D   21059.69694396 -.00000625  00000-0 -23078-4 0  9996,2 44917  53.0559 304.1892 0002223  80.9644 279.1597 15.06389016 63278
2,GENERATED VIA SPACE-TRACK.ORG API,2021-03-01T06:46:12,18 SPCS,STARLINK-1098,2020-001D,EARTH,TEME,UTC,SGP4,2021-02-28T21:30:13.105728,15.0639126,0.0002251,53.0558,303.2955,81.5519,278.5725,0,U,44917,999,6330,-6.0813e-05,-1.187e-05,0,6925.375,95.593,548.799,545.681,PAYLOAD,LARGE,US,2020-01-07,AFETR,,2973342,172624763,0 STARLINK-1098,1 44917U 20001D   21059.89598502 -.00001187  00000-0 -60813-4 0  9992,2 44917  53.0558 303.2955 0002251  81.5519 278.5725 15.06391260 63300
2,GENERATED VIA SPACE-TRACK.ORG API,2021-03-01T17:30:06,18 SPCS,STARLINK-1098,2020-001D,EARTH,TEME,UTC,SGP4,2021-02-28T23:05:45.467520,15.06392041,0.000225,53.0558,302.9977,81.4261,278.6983,0,U,44917,999,6331,-6.388e-05,-1.233e-05,0,6925.373,95.593,548.796,545.68,PAYLOAD,LARGE,US,2020-01-07,AFETR,,2973602,172648429,0 STARLINK-1098,1 44917U 20001D   21059.96233180 -.00001233  00000-0 -63880-4 0  9997,2 44917  53.0558 302.9977 0002250  81.4261 278.6983 15.06392041 63318
2,GENERATED VIA SPACE-TRACK.ORG API,2021-03-02T03:57:44,18 SPCS,STARLINK-1098,2020-001D,EARTH,TEME,UTC,SGP4,2021-03-01T16:36:41.953536,15.06386541,0.000224,53.0556,299.7214,81.7547,278.3696,0,U,44917,999,6342,5.7239e-05,5.71e-06,0,6925.39,95.593,548.806,545.704,PAYLOAD,LARGE,US,2020-01-07,AFETR,,2973830,172675187,0 STARLINK-1098,1 44917U 20001D   21060.69215224  .00000571  00000-0  57239-4 0  9991,2 44917  53.0556 299.7214 0002240  81.7547 278.3696 15.06386541 63420
2,GENERATED VIA SPACE-TRACK.ORG API,2021-03-02T20:15:47,18 SPCS,STARLINK-1098,2020-001D,EARTH,TEME,UTC,SGP4,2021-03-01T22:58:51.558816,15.06387015,0.0002248,53.0556,298.53,82.3587,277.7658,0,U,44917,999,6346,5.7391e-05,5.73e-06,0,6925.388,95.593,548.81,545.697,PAYLOAD,LARGE,US,2020-01-07,AFETR,,2974245,172708501,0 STARLINK-1098,1 44917U 20001D   21060.95754119  .00000573  00000-0  57391-4 0  9992,2 44917  53.0556 298.5300 0002248  82.3587 277.7658 15.06387015 63464
2,GENERATED VIA SPACE-TRACK.ORG API,2021-03-02T15:16:12,18 SPCS,STARLINK-1098,2020-001D,EARTH,TEME,UTC,SGP4,2021-03-02T08:32:05.761536,15.06390009,0.0002257,53.0556,296.7429,82.6486,277.4759,0,U,44917,999,6352,7.7538e-05,8.73e-06,0,6925.379,95.593,548.807,545.681,PAYLOAD,LARGE,US,2020-01-07,AFETR,,2974055,172683801,0 STARLINK-1098,1 44917U 20001D   21061.35562224  .00000873  00000-0  77538-4 0  9999,2 44917  53.0556 296.7429 0002257  82.6486 277.4759 15.06390009 63520
2,GENERATED VIA SPACE-TRACK.ORG API,2021-03-03T03:24:48,18 SPCS,STARLINK-1098,2020-001D,EARTH,TEME,UTC,SGP4,2021-03-02T18:05:20.063616,15.06391872,0.000228,53.0563,294.9576,86.4609,273.6641,0,U,44917,999,6358,6.9085e-05,7.47e-06,0,6925.373,95.593,548.817,545.659,PAYLOAD,LARGE,US,2020-01-07,AFETR,,2974426,172731648,0 STARLINK-1098,1 44917U 20001D   21061.75370444  .00000747  00000-0  69085-4 0  9992,2 44917  53.0563 294.9576 0002280  86.4609 273.6641 15.06391872 63589
2,GENERATED VIA SPACE-TRACK.ORG API,2021-03-03T20:44:47,18 SPCS,STARLINK-1098,2020-001D,EARTH,TEME,UTC,SGP4,2021-03-03T08:25:11.417376,15.0639445,0.0002354,53.0573,292.2756,84.0552,276.0705,0,U,44917,999,6367,8.0054e-05,9.11e-06,0,6925.366,95.592,548.861,545.6,PAYLOAD,LARGE,US,2020-01-07,AFETR,,2974892,172763291,0 STARLINK-1098,1 44917U 20001D   21062.35082659  .00000911  00000-0  80054-4 0  9999,2 44917  53.0573 292.2756 0002354  84.0552 276.0705 15.06394450 63677
2,GENERATED VIA SPACE-TRACK.ORG API,2021-03-04T02:49:46,18 SPCS,STARLINK-1098,2020-001D,EARTH,TEME,UTC,SGP4,2021-03-03T17:58:25.566528,15.06396771,0.0002284,53.0566,290.4901,86.3723,273.7527,0,U,44917,999,6373,7.5745e-05,8.46e-06,0,6925.358,95.592,548.805,545.642,PAYLOAD,LARGE,US,2020-01-07,AFETR,,2975117,172789664,0 STARLINK-1098,1 44917U 20001D   21062.74890702  .00000846  00000-0  75745-4 0  9996,2 44917  53.0566 290.4901 0002284  86.3723 273.7527 15.06396771 63739
2,GENERATED VIA SPACE-TRACK.ORG API,2021-03-03T22:56:11,18 SPCS,STARLINK-1098,2020-001D,EARTH,TEME,UTC,SGP4,2021-03-03T17:58:25.566528,15.06396771,0.0002284,53.0566,290.4901,86.3723,273.7527,0,U,44917,999,6373,7.5745e-05,8.46e-06,0,6925.358,95.592,548.805,545.642,PAYLOAD,LARGE,US,2020-01-07,AFETR,,2975058,172769430,0 STARLINK-1098,1 44917U 20001D   21062.74890702  .00000846  00000-0  75745-4 0  9996,2 44917  53.0566 290.4901 0002284  86.3723 273.7527 15.06396771 63739
2,GENERATED VIA SPACE-TRACK.ORG API,2021-03-04T21:43:07,18 SPCS,STARLINK-1098,2020-001D,EARTH,TEME,UTC,SGP4,2021-03-04T11:29:21.475392,15.06399454,0.0002324,53.0573,287.2126,85.6598,274.4656,0,U,44917,999,6384,6.9284e-05,7.5e-06,0,6925.35,95.592,548.825,545.606,PAYLOAD,LARGE,US,2020-01-07,AFETR,,2975572,172820575,0 STARLINK-1098,1 44917U 20001D   21063.47872078  .00000750  00000-0  69284-4 0  9998,2 44917  53.0573 287.2126 0002324  85.6598 274.4656 15.06399454 63841
2,GENERATED VIA SPACE-TRACK.ORG API,2021-03-05T02:45:08,18 SPCS,STARLINK-1098,2020-001D,EARTH,TEME,UTC,SGP4,2021-03-04T17:51:30.856896,15.06400249,0.0002344,53.0571,286.0213,86.1486,273.9771,0,U,44917,999,6388,6.9542e-05,7.54e-06,0,6925.348,95.592,548.836,545.589,PAYLOAD,LARGE,US,2020-01-07,AFETR,,2975744,172847072,0 STARLINK-1098,1 44917U 20001D   21063.74410714  .00000754  00000-0  69542-4 0  9994,2 44917  53.0571 286.0213 0002344  86.1486 273.9771 15.06400249 63888
2,GENERATED VIA SPACE-TRACK.ORG API,2021-03-05T06:56:11,18 SPCS,STARLINK-1098,2020-001D,EARTH,TEME,UTC,SGP4,2021-03-05T00:13:40.219392,15.06401208,0.0002346,53.0571,284.83,86.358,273.7677,0,U,44917,999,6392,7.2647e-05,8e-06,0,6925.345,95.592,548.835,545.585,PAYLOAD,LARGE,US,2020-01-07,AFETR,,2975913,172853685,0 STARLINK-1098,1 44917U 20001D   21064.00949328  .00000800  00000-0  72647-4 0  9994,2 44917  53.0571 284.8300 0002346  86.3580 273.7677 15.06401208 63924
2,GENERATED VIA SPACE-TRACK.ORG API,2021-03-05T18:23:20,18 SPCS,STARLINK-1098,2020-001D,EARTH,TEME,UTC,SGP4,2021-03-05T08:11:21.917760,15.06402583,0.000235,53.0571,283.3409,86.7449,273.3809,0,U,44917,999,6397,6.8232e-05,7.35e-06,0,6925.341,95.592,548.833,545.578,PAYLOAD,LARGE,US,2020-01-07,AFETR,,2975962,172873721,0 STARLINK-1098,1 44917U 20001D   21064.34122590  .00000735  00000-0  68232-4 0  9997,2 44917  53.0571 283.3409 0002350  86.7449 273.3809 15.06402583 63976
2,GENERATED VIA SPACE-TRACK.ORG API,2021-03-06T02:07:29,18 SPCS,STARLINK-1098,2020-001D,EARTH,TEME,UTC,SGP4,2021-03-05T20:55:40.619424,15.06404034,0.000236,53.057,280.9581,87.9718,272.1541,0,U,44917,999,6405,6.6837e-05,7.14e-06,0,6925.336,95.592,548.836,545.567,PAYLOAD,LARGE,US,2020-01-07,AFETR,,2976413,172905269,0 STARLINK-1098,1 44917U 20001D   21064.87199791  .00000714  00000-0  66837-4 0  9998,2 44917  53.0570 280.9581 0002360  87.9718 272.1541 15.06404034 64055
2,GENERATED VIA SPACE-TRACK.ORG API,2021-03-06T20:25:38,18 SPCS,STARLINK-1098,2020-001D,EARTH,TEME,UTC,SGP4,2021-03-06T11:15:31.601664,15.06405888,0.0002364,53.057,278.2775,88.7648,271.3612,0,U,44917,999,6414,6.1846e-05,6.4e-06,0,6925.331,95.592,548.833,545.558,PAYLOAD,LARGE,US,2020-01-07,AFETR,,2976830,172937813,0 STARLINK-1098,1 44917U 20001D   21065.46911576  .00000640  00000-0  61846-4 0  9990,2 44917  53.0570 278.2775 0002364  88.7648 271.3612 15.06405888 64143
2,GENERATED VIA SPACE-TRACK.ORG API,2021-03-06T14:46:11,18 SPCS,STARLINK-1098,2020-001D,EARTH,TEME,UTC,SGP4,2021-03-06T11:15:31.601664,15.06405888,0.0002364,53.057,278.2775,88.7648,271.3612,0,U,44917,999,6414,6.1846e-05,6.4e-06,0,6925.331,95.592,548.833,545.558,PAYLOAD,LARGE,US,2020-01-07,AFETR,,2976758,172916393,0 STARLINK-1098,1 44917U 20001D   21065.46911576  .00000640  00000-0  61846-4 0  9990,2 44917  53.0570 278.2775 0002364  88.7648 271.3612 15.06405888 64143
2,GENERATED VIA SPACE-TRACK.ORG API,2021-03-07T03:25:32,18 SPCS,STARLINK-1098,2020-001D,EARTH,TEME,UTC,SGP4,2021-03-06T20:48:45.547776,15.06407126,0.0002376,53.0569,276.4905,89.3938,270.7324,0,U,44917,999,6420,6.339e-05,6.63e-06,0,6925.327,95.592,548.837,545.546,PAYLOAD,LARGE,US,2020-01-07,AFETR,,2976996,172962948,0 STARLINK-1098,1 44917U 20001D   21065.86719384  .00000663  00000-0  63390-4 0  9998,2 44917  53.0569 276.4905 0002376  89.3938 270.7324 15.06407126 64205
2,GENERATED VIA SPACE-TRACK.ORG API,2021-03-07T19:06:29,18 SPCS,STARLINK-1098,2020-001D,EARTH,TEME,UTC,SGP4,2021-03-07T09:33:05.480640,15.06394023,0.0002377,53.0569,274.1081,89.9728,270.1533,0,U,44917,999,6428,-4.6724e-05,-9.78e-06,0,6925.367,95.593,548.878,545.586,PAYLOAD,LARGE,US,2020-01-07,AFETR,,2977424,172994196,0 STARLINK-1098,1 44917U 20001D   21066.39798010 -.00000978  00000-0 -46724-4 0  9993,2 44917  53.0569 274.1081 0002377  89.9728 270.1533 15.06394023 64284
2,GENERATED VIA SPACE-TRACK.ORG API,2021-03-07T14:56:12,18 SPCS,STARLINK-1098,2020-001D,EARTH,TEME,UTC,SGP4,2021-03-07T09:33:05.480640,15.06394023,0.0002377,53.0569,274.1081,89.9728,270.1533,0,U,44917,999,6428,-4.6724e-05,-9.78e-06,0,6925.367,95.593,548.878,545.586,PAYLOAD,LARGE,US,2020-01-07,AFETR,,2977375,172974198,0 STARLINK-1098,1 44917U 20001D   21066.39798010 -.00000978  00000-0 -46724-4 0  9993,2 44917  53.0569 274.1081 0002377  89.9728 270.1533 15.06394023 64284
